NORAD_CAT_ID,OBJECT_NAME,OBJECT_TYPE,EPOCH,MEAN_MOTION,ECCENTRICITY,INCLINATION,RA_OF_ASC_NODE,ARG_OF_PERICENTER,MEAN_ANOMALY,BSTAR,MEAN_MOTION_DOT,MEAN_MOTION_DDOT,TLE_LINE0,TLE_LINE1,TLE_LINE2,SEMIMAJOR_AXIS,PERIOD,APOGEE,PERIGEE,DECAYED
53803.0,STARLINK-4727,PAYLOAD,2023-07-13 15:41:18,15.08839831,0.0001139,53.2173,283.8269,105.0187,255.0931,-5.4579e-06,-3.75e-06,0.0,0 STARLINK-4727,1 53803U 22111AG  23194.65368096 -.00000375  00000-0 -54579-5 0  9990,2 53803  53.2173 283.8269 0001139 105.0187 255.0931 15.08839831 46771,6917.881,95.438,540.534,538.958,0.0
53803.0,STARLINK-4727,PAYLOAD,2023-07-15 10:36:42,15.08840249,0.0001063,53.2168,275.7984,95.1881,264.9233,0.00013998,1.941e-05,0.0,0 STARLINK-4727,1 53803U 22111AG  23196.44216087  .00001941  00000-0  13998-3 0  9997,2 53803  53.2168 275.7984 0001063  95.1881 264.9233 15.08840249 47045,6917.88,95.438,540.48,539.009,0.0
53803.0,STARLINK-4727,PAYLOAD,2023-07-16 05:41:21,15.08833759,0.0001302,53.2172,272.2285,85.1171,274.997,7.5533e-05,9.14e-06,0.0,0 STARLINK-4727,1 53803U 22111AG  23197.23705023  .00000914  00000-0  75533-4 0  9991,2 53803  53.2172 272.2285 0001302  85.1171 274.9970 15.08833759 47163,6917.899,95.438,540.665,538.864,0.0
53803.0,STARLINK-4727,PAYLOAD,2023-07-17 13:29:03,15.08849188,0.0001027,53.2171,266.2836,85.3017,274.8092,3.7863e-05,3.15e-06,0.0,0 STARLINK-4727,1 53803U 22111AG  23198.56184511  .00000315  00000-0  37863-4 0  9990,2 53803  53.2171 266.2836 0001027  85.3017 274.8092 15.08849188 47361,6917.852,95.437,540.428,539.007,0.0
53803.0,STARLINK-4727,PAYLOAD,2023-07-17 23:01:22,15.08836752,0.000129,53.2162,264.4978,78.1753,281.9384,8.9105e-05,1.13e-05,0.0,0 STARLINK-4727,1 53803U 22111AG  23198.95929206  .00001130  00000-0  89105-4 0  9993,2 53803  53.2162 264.4978 0001290  78.1753 281.9384 15.08836752 47420,6917.89,95.438,540.648,538.863,0.0
53803.0,STARLINK-4727,PAYLOAD,2023-07-19 09:59:52,15.0884032,0.0001127,53.2166,257.9575,93.4027,266.7094,-4.9578e-07,-2.96e-06,0.0,0 STARLINK-4727,1 53803U 22111AG  23200.41657550 -.00000296  00000-0 -49578-6 0  9994,2 53803  53.2166 257.9575 0001127  93.4027 266.7094 15.08840320 47646,6917.879,95.438,540.524,538.965,0.0
53803.0,STARLINK-4727,PAYLOAD,2023-07-21 03:19:53,15.08840539,0.000121,53.2168,250.2253,76.7807,283.332,0.00010027,1.308e-05,0.0,0 STARLINK-4727,1 53803U 22111AG  23202.13881351  .00001308  00000-0  10027-3 0  9990,2 53803  53.2168 250.2253 0001210  76.7807 283.3320 15.08840539 47908,6917.879,95.438,540.581,538.907,0.0
53803.0,STARLINK-4727,PAYLOAD,2023-07-24 02:52:14,15.08831954,0.0003826,53.2128,236.8391,120.1376,239.9996,6.5271e-05,7.5e-06,0.0,0 STARLINK-4727,1 53803U 22111AG  23205.11961239  .00000750  00000-0  65271-4 0  9997,2 53803  53.2128 236.8391 0003826 120.1376 239.9996 15.08831954 49164,6917.905,95.438,542.417,537.123,0.0
53803.0,STARLINK-4727,PAYLOAD,2023-07-25 09:04:34,15.0884093,0.0001175,53.2159,231.1926,86.4934,273.6192,5.3597e-05,5.65e-06,0.0,0 STARLINK-4727,1 53803U 22111AG  23206.37817396  .00000565  00000-0  53597-4 0  9992,2 53803  53.2159 231.1926 0001175  86.4934 273.6192 15.08840930 49357,6917.878,95.437,540.555,538.93,0.0
53803.0,STARLINK-4727,PAYLOAD,2023-07-26 02:33:49,15.08860959,0.0001431,53.2136,227.9187,108.5285,251.5862,-6.4447e-05,-1.314e-05,0.0,0 STARLINK-4727,1 53803U 22111AG  23207.10681859 -.00001314  00000-0 -64447-4 0  9998,2 53803  53.2136 227.9187 0001431 108.5285 251.5862 15.08860959 49468,6917.816,95.436,540.671,538.691,0.0
53803.0,STARLINK-4727,PAYLOAD,2023-07-26 08:55:21,15.08847909,9.78e-05,53.215,226.7314,92.7251,267.3853,5.0381e-06,-2.08e-06,0.0,0 STARLINK-4727,1 53803U 22111AG  23207.37177789 -.00000208  00000-0  50381-5 0  9992,2 53803  53.2150 226.7314 0000978  92.7251 267.3853 15.08847909 49505,6917.856,95.437,540.398,539.045,0.0
53803.0,STARLINK-4727,PAYLOAD,2023-07-27 00:49:12,15.0884476,9.67e-05,53.2149,223.7575,91.0842,269.0261,4.9217e-05,4.96e-06,0.0,0 STARLINK-4727,1 53803U 22111AG  23208.03417493  .00000496  00000-0  49217-4 0  9998,2 53803  53.2149 223.7575 0000967  91.0842 269.0261 15.08844760 48799,6917.866,95.437,540.4,539.062,0.0
53803.0,STARLINK-4727,PAYLOAD,2023-07-27 07:10:45,15.08844421,9.43e-05,53.2153,222.5684,89.1779,270.9321,7.4641e-05,9.01e-06,0.0,0 STARLINK-4727,1 53803U 22111AG  23208.29913372  .00000901  00000-0  74641-4 0  9993,2 53803  53.2153 222.5684 0000943  89.1779 270.9321 15.08844421 49640,6917.867,95.437,540.384,539.08,0.0
53803.0,STARLINK-4727,PAYLOAD,2023-07-28 00:39:59,15.088402,8.97e-05,53.215,219.2972,93.3583,266.7512,4.8382e-05,4.82e-06,0.0,0 STARLINK-4727,1 53803U 22111AG  23209.02777629  .00000482  00000-0  48382-4 0  9995,2 53803  53.2150 219.2972 0000897  93.3583 266.7512 15.08840200 48946,6917.88,95.438,540.365,539.124,0.0
53803.0,STARLINK-4727,PAYLOAD,2023-07-28 05:26:09,15.08839267,9e-05,53.215,218.405,92.5015,267.608,3.6172e-05,2.88e-06,0.0,0 STARLINK-4727,1 53803U 22111AG  23209.22649714  .00000288  00000-0  36172-4 0  9998,2 53803  53.2150 218.4050 0000900  92.5015 267.6080 15.08839267 49784,6917.883,95.438,540.37,539.125,0.0
53803.0,STARLINK-4727,PAYLOAD,2023-07-29 00:30:48,15.08826179,0.0001211,53.2154,214.8398,67.2714,292.8406,-6.4379e-05,-1.312e-05,0.0,0 STARLINK-4727,1 53803U 22111AG  23210.02139320 -.00001312  00000-0 -64379-4 0  9996,2 53803  53.2154 214.8398 0001211  67.2714 292.8406 15.08826179 49098,6917.923,95.438,540.625,538.95,0.0
53803.0,STARLINK-4727,PAYLOAD,2023-07-30 05:07:45,15.08825991,9.6e-05,53.2158,209.4851,87.2653,272.8449,7.261e-05,8.68e-06,0.0,0 STARLINK-4727,1 53803U 22111AG  23211.21371698  .00000868  00000-0  72610-4 0  9994,2 53803  53.2158 209.4851 0000960  87.2653 272.8449 15.08825991 49276,6917.923,95.438,540.452,539.124,0.0
53803.0,STARLINK-4727,PAYLOAD,2023-07-31 06:33:55,15.08836953,9.41e-05,53.2159,204.7273,84.0928,276.0171,0.00017548,2.506e-05,0.0,0 STARLINK-4727,1 53803U 22111AG  23212.27355538  .00002506  00000-0  17548-3 0  9995,2 53803  53.2159 204.7273 0000941  84.0928 276.0171 15.08836953 49438,6917.89,95.438,540.406,539.104,0.0
53803.0,STARLINK-4727,PAYLOAD,2023-08-01 00:03:09,15.08849735,9.13e-05,53.2157,201.4555,79.2662,280.8432,0.00019396,2.801e-05,0.0,0 STARLINK-4727,1 53803U 22111AG  23213.00218752  .00002801  00000-0  19396-3 0  9994,2 53803  53.2157 201.4555 0000913  79.2662 280.8432 15.08849735 49540,6917.851,95.437,540.347,539.084,0.0
53803.0,STARLINK-4727,PAYLOAD,2023-08-01 15:57:00,15.08846967,9.26e-05,53.2158,198.4836,86.732,273.3778,0.00012567,1.713e-05,0.0,0 STARLINK-4727,1 53803U 22111AG  23213.66458890  .00001713  00000-0  12567-3 0  9999,2 53803  53.2158 198.4836 0000926  86.7320 273.3778 15.08846967 49641,6917.859,95.437,540.365,539.083,0.0
53803.0,STARLINK-4727,PAYLOAD,2023-08-02 07:50:52,15.08843217,0.0001234,53.2169,195.5091,82.6763,277.4369,2.8988e-05,1.74e-06,0.0,0 STARLINK-4727,1 53803U 22111AG  23214.32699305  .00000174  00000-0  28988-4 0  9996,2 53803  53.2169 195.5091 0001234  82.6763 277.4369 15.08843217 49740,6917.871,95.437,540.589,538.882,0.0
53803.0,STARLINK-4727,PAYLOAD,2023-08-03 02:55:28,15.08853392,0.0001165,53.2168,191.9412,89.542,270.5706,2.4728e-05,1.06e-06,0.0,0 STARLINK-4727,1 53803U 22111AG  23215.12186209  .00000106  00000-0  24728-4 0  9992,2 53803  53.2168 191.9412 0001165  89.5420 270.5706 15.08853392 49862,6917.839,95.437,540.51,538.899,0.0
53803.0,STARLINK-4727,PAYLOAD,2023-08-03 15:38:34,15.08840941,0.0001216,53.2153,189.5595,79.7195,280.3934,-8.9184e-05,-1.707e-05,0.0,0 STARLINK-4727,1 53803U 22111AG  23215.65178472 -.00001707  00000-0 -89184-4 0  9990,2 53803  53.2153 189.5595 0001216  79.7195 280.3934 15.08840941 49945,6917.878,95.437,540.584,538.901,0.0
53803.0,STARLINK-4727,PAYLOAD,2023-08-04 02:46:16,15.08830221,0.0001258,53.215,187.4785,84.7559,275.3576,-4.497e-06,-3.59e-06,0.0,0 STARLINK-4727,1 53803U 22111AG  23216.11547323 -.00000359  00000-0 -44970-5 0  9994,2 53803  53.2150 187.4785 0001258  84.7559 275.3576 15.08830221 50012,6917.91,95.438,540.646,538.905,0.0
53803.0,STARLINK-4727,PAYLOAD,2023-08-04 07:32:27,15.0879383,0.0001457,53.2164,186.5861,87.6614,272.4545,0.00059564,9.192e-05,0.0,0 STARLINK-4727,1 53803U 22111AG  23216.31421002  .00009192  00000-0  59564-3 0  9996,2 53803  53.2164 186.5861 0001457  87.6614 272.4545 15.08793830 50048,6918.022,95.44,540.894,538.879,0.0
53803.0,STARLINK-4727,PAYLOAD,2023-08-04 15:29:21,15.08840201,0.000127,53.2164,185.0996,86.2464,273.8673,7.2803e-05,8.71e-06,0.0,0 STARLINK-4727,1 53803U 22111AG  23216.64539036  .00000871  00000-0  72803-4 0  9996,2 53803  53.2164 185.0996 0001270  86.2464 273.8673 15.08840201 50099,6917.88,95.438,540.623,538.866,0.0
53803.0,STARLINK-4727,PAYLOAD,2023-08-05 02:37:02,15.0885307,0.0001341,53.2164,183.0183,83.5081,276.6064,5.6532e-05,6.12e-06,0.0,0 STARLINK-4727,1 53803U 22111AG  23217.10906141  .00000612  00000-0  56532-4 0  9997,2 53803  53.2164 183.0183 0001341  83.5081 276.6064 15.08853070 50160,6917.84,95.437,540.633,538.778,0.0
53803.0,STARLINK-4727,PAYLOAD,2023-08-06 04:03:13,15.0884348,0.000124,53.2161,178.2579,103.6495,256.4636,0.0001361,1.879e-05,0.0,0 STARLINK-4727,1 53803U 22111AG  23218.16890221  .00001879  00000-0  13610-3 0  9990,2 53803  53.2161 178.2579 0001240 103.6495 256.4636 15.08843480 50326,6917.87,95.437,540.593,538.877,0.0
53803.0,STARLINK-4727,PAYLOAD,2023-08-07 03:54:01,15.08835146,0.0001201,53.2156,173.801,97.5797,262.5332,-7.642e-05,-1.504e-05,0.0,0 STARLINK-4727,1 53803U 22111AG  23219.16251496 -.00001504  00000-0 -76420-4 0  9992,2 53803  53.2156 173.8010 0001201  97.5797 262.5332 15.08835146 50471,6917.895,95.438,540.591,538.929,0.0
53803.0,STARLINK-4727,PAYLOAD,2023-08-08 05:20:10,15.08853131,0.0001253,53.2163,169.0434,112.7379,247.3746,9.5777e-05,1.237e-05,0.0,0 STARLINK-4727,1 53803U 22111AG  23220.22233893  .00001237  00000-0  95777-4 0  9999,2 53803  53.2163 169.0434 0001253 112.7379 247.3746 15.08853131 50631,6917.84,95.437,540.572,538.838,0.0
